CHUANGXIN 16A (CX-16A)  
1 53586U 22102A   26068.83297444  .00003128  00000+0  20134-3 0  9993
2 53586  28.9941 256.1289 0005063  43.7318 316.3682 15.05552649194538
STARLINK-35063          
1 65528U 25200J   26068.74343515  .00005876  00000+0  41115-3 0  9999
2 65528  97.6022 139.9246 0000915  90.9918 269.1413 15.05649547 29147
