[{"OBJECT_NAME":"CHUANGXIN 16A (CX-16A)","OBJECT_ID":"2022-102A","EPOCH":"2026-03-09T19:59:28.991616","MEAN_MOTION":15.05552649,"ECCENTRICITY":0.0005063,"INCLINATION":28.9941,"RA_OF_ASC_NODE":256.1289,"ARG_OF_PERICENTER":43.7318,"MEAN_ANOMALY":316.3682,"EPHEMERIS_TYPE":0,"CLASSIFICATION_TYPE":"U","NORAD_CAT_ID":53586,"ELEMENT_SET_NO":999,"REV_AT_EPOCH":19453,"BSTAR":0.00020134,"MEAN_MOTION_DOT":3.128e-5,"MEAN_MOTION_DDOT":0},{"OBJECT_NAME":"STARLINK-35063","OBJECT_ID":"2025-200J","EPOCH":"2026-03-09T17:50:32.797824","MEAN_MOTION":15.05649547,"ECCENTRICITY":9.152e-5,"INCLINATION":97.6022,"RA_OF_ASC_NODE":139.9246,"ARG_OF_PERICENTER":90.9918,"MEAN_ANOMALY":269.1413,"EPHEMERIS_TYPE":0,"CLASSIFICATION_TYPE":"U","NORAD_CAT_ID":65528,"ELEMENT_SET_NO":999,"REV_AT_EPOCH":2914,"BSTAR":0.00041114501,"MEAN_MOTION_DOT":5.876e-5,"MEAN_MOTION_DDOT":0}]
